NORAD_CAT_ID,OBJECT_NAME,OBJECT_TYPE,EPOCH,MEAN_MOTION,ECCENTRICITY,INCLINATION,RA_OF_ASC_NODE,ARG_OF_PERICENTER,MEAN_ANOMALY,BSTAR,MEAN_MOTION_DOT,MEAN_MOTION_DDOT,TLE_LINE0,TLE_LINE1,TLE_LINE2,SEMIMAJOR_AXIS,PERIOD,APOGEE,PERIGEE,DECAYED
55919.0,STARLINK-5871,PAYLOAD,2023-10-07 23:14:42,14.98334047,0.0002818,70.0016,12.6646,269.906,90.1777,-0.00012215,-1.55e-05,0.0,0 STARLINK-5871,1 55919U 23037F   23280.96854432 -.00001550  00000-0 -12215-3 0  9997,2 55919  70.0016  12.6646 0002818 269.9060  90.1777 14.98334047 31458,6950.18,96.107,574.004,570.087,0.0
55919.0,STARLINK-5871,PAYLOAD,2023-10-08 13:39:54,14.98334069,0.0002964,70.0008,11.1483,270.6589,89.423,0.0001197,1.336e-05,0.0,0 STARLINK-5871,1 55919U 23037F   23281.56937790  .00001336  00000-0  11970-3 0  9990,2 55919  70.0008  11.1483 0002964 270.6589  89.4230 14.98334069 31201,6950.18,96.107,574.105,569.985,0.0
55919.0,STARLINK-5871,PAYLOAD,2023-10-08 16:52:10,14.98338008,0.0002936,70.0009,10.8114,269.992,90.0903,0.00015577,1.766e-05,0.0,0 STARLINK-5871,1 55919U 23037F   23281.70289393  .00001766  00000-0  15577-3 0  9999,2 55919  70.0009  10.8114 0002936 269.9920  90.0903 14.98338008 31569,6950.168,96.106,574.074,569.993,0.0
55919.0,STARLINK-5871,PAYLOAD,2023-10-08 23:16:40,14.98421986,0.0003389,70.0013,10.1361,267.8097,92.2674,-0.0014318,-0.00017176,0.0,0 STARLINK-5871,1 55919U 23037F   23281.96991529 -.00017176  00000-0 -14318-2 0  9993,2 55919  70.0013  10.1361 0003389 267.8097  92.2674 14.98421986 31608,6949.908,96.101,574.129,569.418,0.0
55919.0,STARLINK-5871,PAYLOAD,2023-10-09 08:53:31,14.9832435,0.0002383,70.0018,9.1275,257.0841,103.0052,6.7147e-05,7.08e-06,0.0,0 STARLINK-5871,1 55919U 23037F   23282.37050474  .00000708  00000-0  67147-4 0  9995,2 55919  70.0018   9.1275 0002383 257.0841 103.0052 14.98324350 31660,6950.21,96.107,573.732,570.419,0.0
55919.0,STARLINK-5871,PAYLOAD,2023-10-09 13:41:55,14.98327323,0.0002674,70.0013,8.6243,269.7104,90.3749,6.7159e-05,7.08e-06,0.0,0 STARLINK-5871,1 55919U 23037F   23282.57078367  .00000708  00000-0  67159-4 0  9991,2 55919  70.0013   8.6243 0002674 269.7104  90.3749 14.98327323 31359,6950.201,96.107,573.925,570.208,0.0
55919.0,STARLINK-5871,PAYLOAD,2023-10-09 15:18:03,14.98328249,0.0002663,70.0014,8.456,269.3171,90.7683,7.6587e-05,8.21e-06,0.0,0 STARLINK-5871,1 55919U 23037F   23282.63754280  .00000821  00000-0  76587-4 0  9994,2 55919  70.0014   8.4560 0002663 269.3171  90.7683 14.98328249 31368,6950.198,96.107,573.914,570.212,0.0
55919.0,STARLINK-5871,PAYLOAD,2023-10-10 10:31:39,14.98335332,0.0003002,70.0005,6.4331,268.9783,91.1032,5.426e-05,5.55e-06,0.0,0 STARLINK-5871,1 55919U 23037F   23283.43865576  .00000555  00000-0  54260-4 0  9992,2 55919  70.0005   6.4331 0003002 268.9783  91.1032 14.98335332 31829,6950.176,96.107,574.128,569.955,0.0
55919.0,STARLINK-5871,PAYLOAD,2023-10-10 13:43:55,14.98338809,0.0002761,70.0007,6.0961,255.7664,104.3188,0.0001076,1.191e-05,0.0,0 STARLINK-5871,1 55919U 23037F   23283.57217083  .00001191  00000-0  10760-3 0  9994,2 55919  70.0007   6.0961 0002761 255.7664 104.3188 14.98338809 31505,6950.166,96.106,573.95,570.112,0.0
55919.0,STARLINK-5871,PAYLOAD,2023-10-10 15:20:03,14.98342022,0.0002618,70.001,5.928,251.142,108.9455,9.9566e-05,1.096e-05,0.0,0 STARLINK-5871,1 55919U 23037F   23283.63892854  .00001096  00000-0  99566-4 0  9992,2 55919  70.0010   5.9280 0002618 251.1420 108.9455 14.98342022 31859,6950.156,96.106,573.84,570.201,0.0
55919.0,STARLINK-5871,PAYLOAD,2023-10-11 10:33:41,14.98324224,0.0002952,70.0011,3.9107,277.7154,82.367,-8.1177e-07,-1.03e-06,0.0,0 STARLINK-5871,1 55919U 23037F   23284.44006175 -.00000103  00000-0 -81177-6 0  9996,2 55919  70.0011   3.9107 0002952 277.7154  82.3670 14.98324224 31976,6950.211,96.107,574.127,570.024,0.0
55919.0,STARLINK-5871,PAYLOAD,2023-10-11 13:45:57,14.98328537,0.0003097,70.0001,3.5731,272.5879,87.4926,-6.3478e-05,-8.5e-06,0.0,0 STARLINK-5871,1 55919U 23037F   23284.57358030 -.00000850  00000-0 -63478-4 0  9991,2 55919  70.0001   3.5731 0003097 272.5879  87.4926 14.98328537 31658,6950.197,96.107,574.215,569.91,0.0
55919.0,STARLINK-5871,PAYLOAD,2023-10-12 12:11:49,14.98336494,0.0002712,70.0008,1.2176,264.5816,95.5033,-1.1739e-05,-2.33e-06,0.0,0 STARLINK-5871,1 55919U 23037F   23285.50821363 -.00000233  00000-0 -11739-4 0  9997,2 55919  70.0008   1.2176 0002712 264.5816  95.5033 14.98336494 31793,6950.173,96.107,573.923,570.153,0.0
55919.0,STARLINK-5871,PAYLOAD,2023-10-12 15:24:05,14.98338371,0.0002812,70.0009,0.88,270.0096,90.0741,5.3356e-06,-2.9e-07,0.0,0 STARLINK-5871,1 55919U 23037F   23285.64173161 -.00000029  00000-0  53356-5 0  9992,2 55919  70.0009   0.8800 0002812 270.0096  90.0741 14.98338371 32159,6950.167,96.106,573.986,570.078,0.0
55919.0,STARLINK-5871,PAYLOAD,2023-10-13 04:13:10,14.98339143,0.0002283,70.0018,359.5344,269.4869,90.6028,-0.00014646,-1.84e-05,0.0,0 STARLINK-5871,1 55919U 23037F   23286.17581753 -.00001840  00000-0 -14646-3 0  9991,2 55919  70.0018 359.5344 0002283 269.4869  90.6028 14.98339143 32239,6950.165,96.106,573.616,570.443,0.0
55919.0,STARLINK-5871,PAYLOAD,2023-10-13 13:49:58,14.98326627,0.0002669,70.0008,358.5232,271.1342,88.9511,9.6689e-05,1.061e-05,0.0,0 STARLINK-5871,1 55919U 23037F   23286.57637716  .00001061  00000-0  96689-4 0  9997,2 55919  70.0008 358.5232 0002669 271.1342  88.9511 14.98326627 31955,6950.203,96.107,573.923,570.213,0.0
55919.0,STARLINK-5871,PAYLOAD,2023-10-13 15:26:06,14.98328311,0.0002651,70.001,358.3552,270.3009,89.7846,0.00011571,1.288e-05,0.0,0 STARLINK-5871,1 55919U 23037F   23286.64313569  .00001288  00000-0  11571-3 0  9999,2 55919  70.0010 358.3552 0002651 270.3009  89.7846 14.98328311 31966,6950.198,96.107,573.906,570.221,0.0
55919.0,STARLINK-5871,PAYLOAD,2023-10-14 04:15:11,14.98335208,0.0002671,70.0007,357.0086,264.0612,96.0243,4.6811e-05,4.66e-06,0.0,0 STARLINK-5871,1 55919U 23037F   23287.17721203  .00000466  00000-0  46811-4 0  9999,2 55919  70.0007 357.0086 0002671 264.0612  96.0243 14.98335208 32384,6950.177,96.107,573.898,570.185,0.0
55919.0,STARLINK-5871,PAYLOAD,2023-10-14 13:51:59,14.9833794,0.0002593,70.0008,355.9986,262.2643,97.8222,7.505e-05,8.03e-06,0.0,0 STARLINK-5871,1 55919U 23037F   23287.57776741  .00000803  00000-0  75050-4 0  9992,2 55919  70.0008 355.9986 0002593 262.2643  97.8222 14.98337940 32109,6950.168,96.106,573.836,570.231,0.0
55919.0,STARLINK-5871,PAYLOAD,2023-10-15 04:17:12,14.98323296,0.0002154,70.002,354.4846,256.838,103.2538,-1.2896e-05,-2.47e-06,0.0,0 STARLINK-5871,1 55919U 23037F   23288.17861973 -.00000247  00000-0 -12896-4 0  9994,2 55919  70.0020 354.4846 0002154 256.8380 103.2538 14.98323296 32530,6950.214,96.107,573.576,570.582,0.0
55919.0,STARLINK-5871,PAYLOAD,2023-10-15 12:17:53,14.98316155,0.0002718,70.0002,353.6409,266.3474,93.7374,-0.00013568,-1.711e-05,0.0,0 STARLINK-5871,1 55919U 23037F   23288.51242915 -.00001711  00000-0 -13568-3 0  9994,2 55919  70.0002 353.6409 0002718 266.3474  93.7374 14.98316155 32584,6950.236,96.108,573.99,570.212,0.0
55919.0,STARLINK-5871,PAYLOAD,2023-10-15 13:54:01,14.983182,0.0003071,69.9996,353.4725,273.6026,86.4782,-0.00013018,-1.645e-05,0.0,0 STARLINK-5871,1 55919U 23037F   23288.57918835 -.00001645  00000-0 -13018-3 0  9997,2 55919  69.9996 353.4725 0003071 273.6026  86.4782 14.98318200 32258,6950.229,96.108,574.229,569.96,0.0
55919.0,STARLINK-5871,PAYLOAD,2023-10-15 21:54:41,14.98328255,0.0003249,69.9994,352.6305,275.2487,84.8301,-0.00012636,-1.6e-05,0.0,0 STARLINK-5871,1 55919U 23037F   23288.91298258 -.00001600  00000-0 -12636-3 0  9991,2 55919  69.9994 352.6305 0003249 275.2487  84.8301 14.98328255 32303,6950.198,96.107,574.321,569.805,0.0
55919.0,STARLINK-5871,PAYLOAD,2023-10-16 07:31:29,14.98330755,0.0003099,69.9994,351.6211,270.7235,89.3568,-1.1934e-05,-2.35e-06,0.0,0 STARLINK-5871,1 55919U 23037F   23289.31353893 -.00000235  00000-0 -11934-4 0  9997,2 55919  69.9994 351.6211 0003099 270.7235  89.3568 14.98330755 32709,6950.191,96.107,574.209,569.902,0.0
55919.0,STARLINK-5871,PAYLOAD,2023-10-16 13:56:01,14.98336979,0.0003004,69.9996,350.9479,271.839,88.2425,4.6648e-05,4.64e-06,0.0,0 STARLINK-5871,1 55919U 23037F   23289.58057308  .00000464  00000-0  46648-4 0  9990,2 55919  69.9996 350.9479 0003004 271.8390  88.2425 14.98336979 32400,6950.171,96.107,574.124,569.948,0.0
55919.0,STARLINK-5871,PAYLOAD,2023-10-17 12:21:54,14.98327107,0.0002881,70.0004,348.5916,267.0972,92.9857,0.00018391,2.102e-05,0.0,0 STARLINK-5871,1 55919U 23037F   23290.51521553  .00002102  00000-0  18391-3 0  9997,2 55919  70.0004 348.5916 0002881 267.0972  92.9857 14.98327107 32883,6950.202,96.107,574.069,570.064,0.0
55919.0,STARLINK-5871,PAYLOAD,2023-10-18 12:23:56,14.98326568,0.0002698,70.0005,346.067,270.6806,89.4044,-6.626e-05,-8.83e-06,0.0,0 STARLINK-5871,1 55919U 23037F   23291.51662270 -.00000883  00000-0 -66260-4 0  9995,2 55919  70.0005 346.0670 0002698 270.6806  89.4044 14.98326568 33033,6950.204,96.107,573.944,570.193,0.0
55919.0,STARLINK-5871,PAYLOAD,2023-10-18 20:24:35,14.98353295,0.0002371,70.0004,345.2242,277.8075,82.2815,-0.00033819,-4.128e-05,0.0,0 STARLINK-5871,1 55919U 23037F   23291.85041184 -.00004128  00000-0 -33819-3 0  9996,2 55919  70.0004 345.2242 0002371 277.8075  82.2815 14.98353295 33082,6950.121,96.106,573.634,570.338,0.0
55919.0,STARLINK-5871,PAYLOAD,2023-10-19 04:25:15,14.98335511,0.0002797,69.9999,344.3834,268.8452,91.2387,1.3968e-05,7.4e-07,0.0,0 STARLINK-5871,1 55919U 23037F   23292.18421175  .00000074  00000-0  13968-4 0  9993,2 55919  69.9999 344.3834 0002797 268.8452  91.2387 14.98335511 33131,6950.176,96.107,573.985,570.097,0.0
55919.0,STARLINK-5871,PAYLOAD,2023-10-19 12:25:55,14.98338594,0.0002592,70.0,343.5412,265.3101,94.7762,5.4703e-05,5.6e-06,0.0,0 STARLINK-5871,1 55919U 23037F   23292.51800696  .00000560  00000-0  54703-4 0  9991,2 55919  70.0000 343.5412 0002592 265.3101  94.7762 14.98338594 32842,6950.166,96.106,573.833,570.23,0.0
